IRIDIUM 112             
1 41925U 17003J   25013.28830911  .00000441  00000+0  15058-3 0  9995
2 41925  86.3979 305.5553 0002083  76.6727 283.4701 14.34217526418754
IRIDIUM 111             
1 41926U 17003K   25013.34539508  .00000504  00000+0  17279-3 0  9998
2 41926  86.3981 305.5905 0002027  88.2066 271.9362 14.34221600418744
IRIDIUM 113             
1 42803U 17039A   25013.39512658  .00000139  00000+0  42661-4 0  9992
2 42803  86.4005 179.3873 0001670  81.1031 279.0354 14.34218817396689
IRIDIUM 123             
1 42804U 17039B   25013.57614753  .00000137  00000+0  41916-4 0  9992
2 42804  86.3971 210.7449 0001907  96.8360 263.3053 14.34218351395472
IRIDIUM 120             
1 42805U 17039C   25013.73762817  .00000021  00000+0  37740-6 0  9990
2 42805  86.3996 179.0945 0002145 100.7032 259.4405 14.34218024396727
IRIDIUM 115             
1 42806U 17039D   25013.41459693  .00000605  00000+0  17375-3 0  9998
2 42806  86.4531 179.2852 0001670 104.8755 255.2631 14.43285523399290
IRIDIUM 118             
1 42807U 17039E   25013.39855754  .00000155  00000+0  48188-4 0  9991
2 42807  86.3971 210.8195 0001979  88.7759 271.3663 14.34217687395449
IRIDIUM 117             
1 42808U 17039F   25013.48734376  .00000159  00000+0  49774-4 0  9994
2 42808  86.3971 210.7450 0001852  98.7660 261.3745 14.34216808395483
